GLOBALSTAR M067 [+]     
1 32263U 07048A   24012.60901456 -.00000069  00000+0  20936-3 0  9993
2 32263  51.9725 122.0647 0000144  57.1933  46.3185 12.40636862744747
GLOBALSTAR M070 [+]     
1 32264U 07048B   24013.14203657 -.00000047  00000+0  31675-3 0  9990
2 32264  51.9750 275.7747 0001142  51.8459 113.0045 12.62284597748846
GLOBALSTAR M066 [+]     
1 32265U 07048C   24013.38830380 -.00000095  00000+0  51188-4 0  9991
2 32265  51.9669 137.0432 0001548 141.7267 253.7137 12.62279431751101
GLOBALSTAR M068 [-]     
1 32266U 07048D   24013.50874043 -.00000056  00000+0  26813-3 0  9993
2 32266  51.9888  89.3932 0001344  99.4206   4.4525 12.62776241752064
GLOBALSTAR M079 [+]     
1 37188U 10054A   24013.16908147 -.00000064  00000+0  22158-3 0  9994
2 37188  52.0048 285.8509 0000555  55.6926 109.8728 12.62265529611332
GLOBALSTAR M074 [+]     
1 37189U 10054B   24013.19539812 -.00000058  00000+0  25299-3 0  9999
2 37189  52.0022 285.1743 0000806  59.0661 105.9005 12.62264124611336
GLOBALSTAR M076 [+]     
1 37190U 10054C   24012.96621716 -.00000073  00000+0  16955-3 0  9996
2 37190  52.0035 285.9993 0000661  10.8043  70.2545 12.62257511610957
GLOBALSTAR M077 [+]     
1 37191U 10054D   24013.04677995 -.00000075  00000+0  15971-3 0  9996
2 37191  52.0055 242.4586 0001058  67.4817  80.2902 12.62268675612070
